EUTELSAT QUANTUM        
1 49056U 21069B   25296.20127425  .00000000  00000+0  00000+0 0  9997
2 49056   0.0213  74.0389 0002650 158.6452 279.3501  1.00273916 15559
EUTELSAT KONNECT VHTS   
1 53765U 22110A   25295.26477576  .00000026  00000+0  00000+0 0  9995
2 53765   0.0597  92.9710 0002567  96.5068 299.5064  1.00270668  4448
EUTELSAT HOTBIRD 13F    
1 54048U 22134A   25296.37997524  .00000099  00000+0  00000+0 0  9999
2 54048   0.0520 284.7144 0002083  81.0537 176.0842  1.00273354 11002
EUTELSAT HOTBIRD 13G    
1 54225U 22146A   25296.38011413  .00000099  00000+0  00000+0 0  9994
2 54225   0.0427 236.0092 0001937 297.9620   7.9165  1.00271801  5092
EUTELSAT 10B            
1 54259U 22157A   25296.37663896  .00000080  00000+0  00000+0 0  9990
2 54259   0.0598  90.1859 0001585  39.5496  47.9025  1.00272167 10651
EUTELSAT 36D            
1 59346U 24059A   25295.62808422  .00000166  00000+0  00000+0 0  9993
2 59346   0.0195 237.8099 0000206 239.2474 176.2123  1.00272061  5760
